{"fetched_at":"2026-07-05T12:48:00.609Z","source":"https://celestrak.org/NORAD/elements/gp.php?NAME=ICEYE&FORMAT=JSON","constellation":"iceye","records":[{"OBJECT_NAME":"ICEYE-X2","OBJECT_ID":"2018-099AU","EPOCH":"2026-07-05T06:30:31.291200","CLASSIFICATION_TYPE":"U","MEAN_MOTION":15.1796556,"ECCENTRICITY":0.00088284,"INCLINATION":97.4341,"RA_OF_ASC_NODE":239.7954,"ARG_OF_PERICENTER":232.4025,"MEAN_ANOMALY":127.6408,"EPHEMERIS_TYPE":0,"NORAD_CAT_ID":43800,"ELEMENT_SET_NO":999,"REV_AT_EPOCH":41556,"BSTAR":0.0008232055,"MEAN_MOTION_DOT":0.00016695,"MEAN_MOTION_DDOT":0},{"OBJECT_NAME":"ICEYE-X4","OBJECT_ID":"2019-038D","EPOCH":"2026-07-05T07:40:55.815744","CLASSIFICATION_TYPE":"U","MEAN_MOTION":15.29721762,"ECCENTRICITY":0.00119914,"INCLINATION":97.8747,"RA_OF_ASC_NODE":220.3025,"ARG_OF_PERICENTER":234.7003,"MEAN_ANOMALY":125.3116,"EPHEMERIS_TYPE":0,"NORAD_CAT_ID":44390,"ELEMENT_SET_NO":999,"REV_AT_EPOCH":38457,"BSTAR":0.00052958701,"MEAN_MOTION_DOT":0.00015211,"MEAN_MOTION_DDOT":0},{"OBJECT_NAME":"ICEYE-X7","OBJECT_ID":"2020-068L","EPOCH":"2026-07-05T07:16:09.745248","CLASSIFICATION_TYPE":"U","MEAN_MOTION":15.31937947,"ECCENTRICITY":0.00052454,"INCLINATION":97.7506,"RA_OF_ASC_NODE":153.6576,"ARG_OF_PERICENTER":258.3836,"MEAN_ANOMALY":101.6816,"EPHEMERIS_TYPE":0,"NORAD_CAT_ID":46496,"ELEMENT_SET_NO":999,"REV_AT_EPOCH":31756,"BSTAR":0.00050538291,"MEAN_MOTION_DOT":0.00015522,"MEAN_MOTION_DDOT":0},{"OBJECT_NAME":"ICEYE-X6","OBJECT_ID":"2020-068M","EPOCH":"2026-07-05T06:44:20.228352","CLASSIFICATION_TYPE":"U","MEAN_MOTION":15.04621204,"ECCENTRICITY":0.0007963,"INCLINATION":98.097,"RA_OF_ASC_NODE":180.8181,"ARG_OF_PERICENTER":39.1066,"MEAN_ANOMALY":321.0733,"EPHEMERIS_TYPE":0,"NORAD_CAT_ID":46497,"ELEMENT_SET_NO":999,"REV_AT_EPOCH":31595,"BSTAR":0.00028706766,"MEAN_MOTION_DOT":0.00003967,"MEAN_MOTION_DDOT":0},{"OBJECT_NAME":"ICEYE-X21","OBJECT_ID":"2023-001AS","EPOCH":"2026-06-24T05:11:18.420288","CLASSIFICATION_TYPE":"U","MEAN_MOTION":16.24069885,"ECCENTRICITY":0.00123774,"INCLINATION":97.3001,"RA_OF_ASC_NODE":262.6152,"ARG_OF_PERICENTER":285.9702,"MEAN_ANOMALY":74.0225,"EPHEMERIS_TYPE":0,"NORAD_CAT_ID":55049,"ELEMENT_SET_NO":999,"REV_AT_EPOCH":19475,"BSTAR":0.000602142,"MEAN_MOTION_DOT":0.01585954,"MEAN_MOTION_DDOT":0.000002396838},{"OBJECT_NAME":"ICEYE-X25","OBJECT_ID":"2023-084AH","EPOCH":"2026-07-05T06:17:03.164352","CLASSIFICATION_TYPE":"U","MEAN_MOTION":15.62087287,"ECCENTRICITY":0.00037949,"INCLINATION":97.5908,"RA_OF_ASC_NODE":333.7774,"ARG_OF_PERICENTER":216.3943,"MEAN_ANOMALY":143.7057,"EPHEMERIS_TYPE":0,"NORAD_CAT_ID":56963,"ELEMENT_SET_NO":999,"REV_AT_EPOCH":17079,"BSTAR":0.00066706233,"MEAN_MOTION_DOT":0.00058585,"MEAN_MOTION_DDOT":0},{"OBJECT_NAME":"ICEYE-X31","OBJECT_ID":"2023-174AJ","EPOCH":"2026-07-05T06:20:12.100416","CLASSIFICATION_TYPE":"U","MEAN_MOTION":15.34938635,"ECCENTRICITY":0.00017371,"INCLINATION":97.3769,"RA_OF_ASC_NODE":262.0057,"ARG_OF_PERICENTER":219.0767,"MEAN_ANOMALY":141.0351,"EPHEMERIS_TYPE":0,"NORAD_CAT_ID":58288,"ELEMENT_SET_NO":999,"REV_AT_EPOCH":14752,"BSTAR":0.00063074649,"MEAN_MOTION_DOT":0.00021329,"MEAN_MOTION_DDOT":0},{"OBJECT_NAME":"ICEYE-X34","OBJECT_ID":"2023-174AQ","EPOCH":"2026-07-05T01:26:38.236992","CLASSIFICATION_TYPE":"U","MEAN_MOTION":15.68787933,"ECCENTRICITY":0.00018417,"INCLINATION":97.3869,"RA_OF_ASC_NODE":278.1593,"ARG_OF_PERICENTER":175.0839,"MEAN_ANOMALY":185.0441,"EPHEMERIS_TYPE":0,"NORAD_CAT_ID":58294,"ELEMENT_SET_NO":999,"REV_AT_EPOCH":14854,"BSTAR":0.0019504742,"MEAN_MOTION_DOT":0.00228351,"MEAN_MOTION_DDOT":0},{"OBJECT_NAME":"ICEYE-X35","OBJECT_ID":"2023-174AY","EPOCH":"2026-07-05T06:41:55.701024","CLASSIFICATION_TYPE":"U","MEAN_MOTION":15.54343076,"ECCENTRICITY":0.00085636,"INCLINATION":97.3785,"RA_OF_ASC_NODE":271.3712,"ARG_OF_PERICENTER":138.7476,"MEAN_ANOMALY":221.4427,"EPHEMERIS_TYPE":0,"NORAD_CAT_ID":58302,"ELEMENT_SET_NO":999,"REV_AT_EPOCH":14815,"BSTAR":0.0010704049,"MEAN_MOTION_DOT":0.00070579,"MEAN_MOTION_DDOT":0},{"OBJECT_NAME":"ICEYE-X38","OBJECT_ID":"2024-043C","EPOCH":"2026-07-05T05:44:44.439072","CLASSIFICATION_TYPE":"U","MEAN_MOTION":15.13027679,"ECCENTRICITY":0.00031454,"INCLINATION":97.8428,"RA_OF_ASC_NODE":330.4863,"ARG_OF_PERICENTER":47.7537,"MEAN_ANOMALY":312.3959,"EPHEMERIS_TYPE":0,"NORAD_CAT_ID":59100,"ELEMENT_SET_NO":999,"REV_AT_EPOCH":11440,"BSTAR":0.0003555599,"MEAN_MOTION_DOT":0.00006214,"MEAN_MOTION_DDOT":0},{"OBJECT_NAME":"ICEYE-X37","OBJECT_ID":"2024-043E","EPOCH":"2026-07-05T02:49:58.907424","CLASSIFICATION_TYPE":"U","MEAN_MOTION":15.06248773,"ECCENTRICITY":0.001396,"INCLINATION":97.8342,"RA_OF_ASC_NODE":323.4033,"ARG_OF_PERICENTER":311.8318,"MEAN_ANOMALY":48.1716,"EPHEMERIS_TYPE":0,"NORAD_CAT_ID":59102,"ELEMENT_SET_NO":999,"REV_AT_EPOCH":12778,"BSTAR":0.00041336767,"MEAN_MOTION_DOT":0.00006014,"MEAN_MOTION_DDOT":0},{"OBJECT_NAME":"ICEYE-X36","OBJECT_ID":"2024-043F","EPOCH":"2026-07-05T02:40:50.809152","CLASSIFICATION_TYPE":"U","MEAN_MOTION":15.07183748,"ECCENTRICITY":0.00044656,"INCLINATION":97.8399,"RA_OF_ASC_NODE":324.5046,"ARG_OF_PERICENTER":253.7238,"MEAN_ANOMALY":106.3498,"EPHEMERIS_TYPE":0,"NORAD_CAT_ID":59103,"ELEMENT_SET_NO":999,"REV_AT_EPOCH":12784,"BSTAR":0.00043492036,"MEAN_MOTION_DOT":0.00006482,"MEAN_MOTION_DDOT":0},{"OBJECT_NAME":"ICEYE-X43","OBJECT_ID":"2024-149BZ","EPOCH":"2026-07-05T07:27:16.506144","CLASSIFICATION_TYPE":"U","MEAN_MOTION":14.99757785,"ECCENTRICITY":0.00073336,"INCLINATION":97.6816,"RA_OF_ASC_NODE":263.0319,"ARG_OF_PERICENTER":28.4032,"MEAN_ANOMALY":331.759,"EPHEMERIS_TYPE":0,"NORAD_CAT_ID":60539,"ELEMENT_SET_NO":999,"REV_AT_EPOCH":10283,"BSTAR":0.00045887682,"MEAN_MOTION_DOT":0.00005616,"MEAN_MOTION_DDOT":0},{"OBJECT_NAME":"ICEYE-X39","OBJECT_ID":"2024-149CG","EPOCH":"2026-07-05T03:43:58.257696","CLASSIFICATION_TYPE":"U","MEAN_MOTION":15.00019985,"ECCENTRICITY":0.00068742,"INCLINATION":97.6761,"RA_OF_ASC_NODE":262.9354,"ARG_OF_PERICENTER":72.9414,"MEAN_ANOMALY":287.2562,"EPHEMERIS_TYPE":0,"NORAD_CAT_ID":60546,"ELEMENT_SET_NO":999,"REV_AT_EPOCH":10281,"BSTAR":0.00050709665,"MEAN_MOTION_DOT":0.00006255,"MEAN_MOTION_DDOT":0},{"OBJECT_NAME":"ICEYE-X33","OBJECT_ID":"2024-149CJ","EPOCH":"2026-07-05T04:04:17.162976","CLASSIFICATION_TYPE":"U","MEAN_MOTION":15.00904778,"ECCENTRICITY":0.00019331,"INCLINATION":97.7323,"RA_OF_ASC_NODE":265.2172,"ARG_OF_PERICENTER":78.9897,"MEAN_ANOMALY":281.1544,"EPHEMERIS_TYPE":0,"NORAD_CAT_ID":60548,"ELEMENT_SET_NO":999,"REV_AT_EPOCH":10290,"BSTAR":0.00055925418,"MEAN_MOTION_DOT":0.00007064,"MEAN_MOTION_DDOT":0}]}
