ICEYE-X2                
1 43800U 18099AU  26186.27119550  .00016695  00000+0  82321-3 0  9990
2 43800  97.4341 239.7954 0008828 232.4025 127.6408 15.17965560415562
ICEYE-X4                
1 44390U 19038D   26186.32009046  .00015211  00000+0  52959-3 0  9990
2 44390  97.8747 220.3025 0011991 234.7003 125.3116 15.29721762384576
ICEYE-X7                
1 46496U 20068L   26186.30289057  .00015522  00000+0  50538-3 0  9990
2 46496  97.7506 153.6576 0005245 258.3836 101.6816 15.31937947317563
ICEYE-X6                
1 46497U 20068M   26186.28078968  .00003967  00000+0  28707-3 0  9998
2 46497  98.0970 180.8181 0007963  39.1066 321.0733 15.04621204315959
ICEYE-X21               
1 55049U 23001AS  26175.21618542  .01585954  23968-5  60214-3 0  9995
2 55049  97.3001 262.6152 0012377 285.9702  74.0225 16.24069885194757
ICEYE-X25               
1 56963U 23084AH  26186.26184218  .00058585  00000+0  66706-3 0  9999
2 56963  97.5908 333.7774 0003794 216.3943 143.7057 15.62087287170791
ICEYE-X31               
1 58288U 23174AJ  26186.26402894  .00021329  00000+0  63075-3 0  9996
2 58288  97.3769 262.0057 0001737 219.0767 141.0351 15.34938635147527
ICEYE-X34               
1 58294U 23174AQ  26186.06016478  .00228351  00000+0  19505-2 0  9992
2 58294  97.3869 278.1593 0001841 175.0839 185.0441 15.68787933148546
ICEYE-X35               
1 58302U 23174AY  26186.27911691  .00070579  00000+0  10704-2 0  9995
2 58302  97.3785 271.3712 0008563 138.7476 221.4427 15.54343076148159
ICEYE-X38               
1 59100U 24043C   26186.23940323  .00006214  00000+0  35556-3 0  9996
2 59100  97.8428 330.4863 0003145  47.7537 312.3959 15.13027679114401
ICEYE-X37               
1 59102U 24043E   26186.11804291  .00006014  00000+0  41337-3 0  9990
2 59102  97.8342 323.4033 0013960 311.8318  48.1716 15.06248773127789
ICEYE-X36               
1 59103U 24043F   26186.11169918  .00006482  00000+0  43492-3 0  9994
2 59103  97.8399 324.5046 0004465 253.7238 106.3498 15.07183748127845
ICEYE-X43               
1 60539U 24149BZ  26186.31060771  .00005616  00000+0  45888-3 0  9994
2 60539  97.6816 263.0319 0007333  28.4032 331.7590 14.99757785102835
ICEYE-X39               
1 60546U 24149CG  26186.15553539  .00006255  00000+0  50710-3 0  9993
2 60546  97.6761 262.9354 0006874  72.9414 287.2562 15.00019985102814
ICEYE-X33               
1 60548U 24149CJ  26186.16964309  .00007064  00000+0  55925-3 0  9999
2 60548  97.7323 265.2172 0001933  78.9897 281.1544 15.00904778102903
